{
    "type": "FeatureCollection",
    "features": [
        {
            "type": "Feature",
            "properties": {
                "sourcename": "Caen",
                "targetname": "Montréal",
                "transport": "plane"
            },
            "geometry": {
                "type": "LineString",
                "coordinates": [
                    [
                        -0.33331,
                        49.15622
                    ],
                    [
                        -73.62875,
                        45.51015
                    ]
                ]
            }
        },
        {
            "type": "Feature",
            "properties": {
                "sourcename": "Caen",
                "targetname": "New-York",
                "transport": "plane"
            },
            "geometry": {
                "type": "LineString",
                "coordinates": [
                    [
                        -0.33331,
                        49.15622
                    ],
                    [
                        -74.00602,
                        40.71273
                    ]
                ]
            }
        },
        {
            "type": "Feature",
            "properties": {
                "sourcename": "Caen",
                "targetname": "Bath",
                "transport": "bus"
            },
            "geometry": {
                "type": "LineString",
                "coordinates": [
                    [
                        -0.33331,
                        49.15622
                    ],
                    [
                        -2.39027,
                        51.36271
                    ]
                ]
            }
        },
        {
            "type": "Feature",
            "properties": {
                "sourcename": "Caen",
                "targetname": "Grenoble",
                "transport": "bus"
            },
            "geometry": {
                "type": "LineString",
                "coordinates": [
                    [
                        -0.33331,
                        49.15622
                    ],
                    [
                        5.73578,
                        45.18756
                    ]
                ]
            }
        },
        {
            "type": "Feature",
            "properties": {
                "sourcename": "Caen",
                "targetname": "Ourense",
                "transport": "bus"
            },
            "geometry": {
                "type": "LineString",
                "coordinates": [
                    [
                        -0.33331,
                        49.15622
                    ],
                    [
                        -7.86841,
                        42.34331
                    ]
                ]
            }
        },
        {
            "type": "Feature",
            "properties": {
                "sourcename": "Caen",
                "targetname": "Liège",
                "transport": "bus"
            },
            "geometry": {
                "type": "LineString",
                "coordinates": [
                    [
                        -0.33331,
                        49.15622
                    ],
                    [
                        5.54041,
                        50.56612
                    ]
                ]
            }
        },
        {
            "type": "Feature",
            "properties": {
                "sourcename": "Caen",
                "targetname": "Lisbonne",
                "transport": "plane"
            },
            "geometry": {
                "type": "LineString",
                "coordinates": [
                    [
                        -0.33331,
                        49.15622
                    ],
                    [
                        -9.13659,
                        38.70775
                    ]
                ]
            }
        },
        {
            "type": "Feature",
            "properties": {
                "sourcename": "Caen",
                "targetname": "Barcelone",
                "transport": "plane"
            },
            "geometry": {
                "type": "LineString",
                "coordinates": [
                    [
                        -0.33331,
                        49.15622
                    ],
                    [
                        2.17743,
                        41.38289
                    ]
                ]
            }
        },
        {
            "type": "Feature",
            "properties": {
                "sourcename": "Caen",
                "targetname": "Toulouse",
                "transport": "train"
            },
            "geometry": {
                "type": "LineString",
                "coordinates": [
                    [
                        -0.33331,
                        49.15622
                    ],
                    [
                        1.45404,
                        43.61182
                    ]
                ]
            }
        },
        {
            "type": "Feature",
            "properties": {
                "sourcename": "Montréal",
                "targetname": "Lisbonne",
                "transport": "plane"
            },
            "geometry": {
                "type": "LineString",
                "coordinates": [
                    [
                        -73.62875,
                        45.51015
                    ],
                    [
                        -9.13659,
                        38.70775
                    ]
                ]
            }
        },
        {
            "type": "Feature",
            "properties": {
                "sourcename": "Montréal",
                "targetname": "Toronto",
                "transport": "train"
            },
            "geometry": {
                "type": "LineString",
                "coordinates": [
                    [
                        -73.62875,
                        45.51015
                    ],
                    [
                        -79.38393,
                        43.65348
                    ]
                ]
            }
        },
        {
            "type": "Feature",
            "properties": {
                "sourcename": "Montréal",
                "targetname": "Boston",
                "transport": "bus"
            },
            "geometry": {
                "type": "LineString",
                "coordinates": [
                    [
                        -73.62875,
                        45.51015
                    ],
                    [
                        -71.05522,
                        42.36785
                    ]
                ]
            }
        },
        {
            "type": "Feature",
            "properties": {
                "sourcename": "Miami",
                "targetname": "San_Juan",
                "transport": "plane"
            },
            "geometry": {
                "type": "LineString",
                "coordinates": [
                    [
                        -80.19205,
                        25.77787
                    ],
                    [
                        -66.11498,
                        18.46537
                    ]
                ]
            }
        },
        {
            "type": "Feature",
            "properties": {
                "sourcename": "Montréal",
                "targetname": "Miami",
                "transport": "plane"
            },
            "geometry": {
                "type": "LineString",
                "coordinates": [
                    [
                        -73.62875,
                        45.51015
                    ],
                    [
                        -80.19205,
                        25.77787
                    ]
                ]
            }
        },
        {
            "type": "Feature",
            "properties": {
                "sourcename": "Montréal",
                "targetname": "Halifax",
                "transport": "plane"
            },
            "geometry": {
                "type": "LineString",
                "coordinates": [
                    [
                        -73.62875,
                        45.51015
                    ],
                    [
                        -63.5729,
                        44.64571
                    ]
                ]
            }
        },
        {
            "type": "Feature",
            "properties": {
                "sourcename": "Montréal",
                "targetname": "New-York",
                "transport": "bus"
            },
            "geometry": {
                "type": "LineString",
                "coordinates": [
                    [
                        -73.62875,
                        45.51015
                    ],
                    [
                        -74.00602,
                        40.71273
                    ]
                ]
            }
        },
        {
            "type": "Feature",
            "properties": {
                "sourcename": "Toronto",
                "targetname": "Reykjavik",
                "transport": "plane"
            },
            "geometry": {
                "type": "LineString",
                "coordinates": [
                    [
                        -79.38393,
                        43.65348
                    ],
                    [
                        -21.96044,
                        64.145
                    ]
                ]
            }
        },
        {
            "type": "Feature",
            "properties": {
                "sourcename": "Reykjavik",
                "targetname": "Caen",
                "transport": "plane"
            },
            "geometry": {
                "type": "LineString",
                "coordinates": [
                    [
                        -21.96044,
                        64.145
                    ],
                    [
                        -0.33331,
                        49.15622
                    ]
                ]
            }
        },
        {
            "type": "Feature",
            "properties": {
                "sourcename": "Montréal",
                "targetname": "Vancouver",
                "transport": "plane"
            },
            "geometry": {
                "type": "LineString",
                "coordinates": [
                    [
                        -73.62875,
                        45.51015
                    ],
                    [
                        -123.19239,
                        49.19281
                    ]
                ]
            }
        },
        {
            "type": "Feature",
            "properties": {
                "sourcename": "Vancouver",
                "targetname": "Tokyo",
                "transport": "plane"
            },
            "geometry": {
                "type": "LineString",
                "coordinates": [
                    [
                        -123.19239,
                        49.19281
                    ],
                    [
                        139.76389,
                        35.67686
                    ]
                ]
            }
        },
        {
            "type": "Feature",
            "properties": {
                "sourcename": "Tokyo",
                "targetname": "Taipei",
                "transport": "plane"
            },
            "geometry": {
                "type": "LineString",
                "coordinates": [
                    [
                        139.76389,
                        35.67686
                    ],
                    [
                        121.56368,
                        25.03752
                    ]
                ]
            }
        },
        {
            "type": "Feature",
            "properties": {
                "sourcename": "Manille",
                "targetname": "Taipei",
                "transport": "plane"
            },
            "geometry": {
                "type": "LineString",
                "coordinates": [
                    [
                        120.98036,
                        14.59045
                    ],
                    [
                        121.56368,
                        25.03752
                    ]
                ]
            }
        },
        {
            "type": "Feature",
            "properties": {
                "sourcename": "Los_Angeles",
                "targetname": "Taipei",
                "transport": "plane"
            },
            "geometry": {
                "type": "LineString",
                "coordinates": [
                    [
                        -118.23454,
                        34.05516
                    ],
                    [
                        121.56368,
                        25.03752
                    ]
                ]
            }
        },
        {
            "type": "Feature",
            "properties": {
                "sourcename": "Los_Angeles",
                "targetname": "Montréal",
                "transport": "plane"
            },
            "geometry": {
                "type": "LineString",
                "coordinates": [
                    [
                        -118.23454,
                        34.05516
                    ],
                    [
                        -73.62875,
                        45.51015
                    ]
                ]
            }
        },
        {
            "type": "Feature",
            "properties": {
                "sourcename": "Montréal",
                "targetname": "Chicago",
                "transport": "bus"
            },
            "geometry": {
                "type": "LineString",
                "coordinates": [
                    [
                        -73.62875,
                        45.51015
                    ],
                    [
                        -87.63019,
                        41.88176
                    ]
                ]
            }
        },
        {
            "type": "Feature",
            "properties": {
                "sourcename": "Chicago",
                "targetname": "Seattle",
                "transport": "bus"
            },
            "geometry": {
                "type": "LineString",
                "coordinates": [
                    [
                        -87.63019,
                        41.88176
                    ],
                    [
                        -122.33322,
                        47.60317
                    ]
                ]
            }
        },
        {
            "type": "Feature",
            "properties": {
                "sourcename": "Seattle",
                "targetname": "San_Francisco",
                "transport": "bus"
            },
            "geometry": {
                "type": "LineString",
                "coordinates": [
                    [
                        -122.33322,
                        47.60317
                    ],
                    [
                        -122.40563,
                        37.78083
                    ]
                ]
            }
        },
        {
            "type": "Feature",
            "properties": {
                "sourcename": "San_Francisco",
                "targetname": "Los_Angeles",
                "transport": "bus"
            },
            "geometry": {
                "type": "LineString",
                "coordinates": [
                    [
                        -122.40563,
                        37.78083
                    ],
                    [
                        -118.23454,
                        34.05516
                    ]
                ]
            }
        },
        {
            "type": "Feature",
            "properties": {
                "sourcename": "Los_Angeles",
                "targetname": "El_Paso",
                "transport": "bus"
            },
            "geometry": {
                "type": "LineString",
                "coordinates": [
                    [
                        -118.23454,
                        34.05516
                    ],
                    [
                        -106.49534,
                        31.75823
                    ]
                ]
            }
        },
        {
            "type": "Feature",
            "properties": {
                "sourcename": "El_Paso",
                "targetname": "New_Orleans",
                "transport": "bus"
            },
            "geometry": {
                "type": "LineString",
                "coordinates": [
                    [
                        -106.49534,
                        31.75823
                    ],
                    [
                        -90.06267,
                        29.9594
                    ]
                ]
            }
        },
        {
            "type": "Feature",
            "properties": {
                "sourcename": "New_Orleans",
                "targetname": "Washington",
                "transport": "bus"
            },
            "geometry": {
                "type": "LineString",
                "coordinates": [
                    [
                        -90.06267,
                        29.9594
                    ],
                    [
                        -77.00557,
                        38.89838
                    ]
                ]
            }
        },
        {
            "type": "Feature",
            "properties": {
                "sourcename": "Washington",
                "targetname": "New-York",
                "transport": "bus"
            },
            "geometry": {
                "type": "LineString",
                "coordinates": [
                    [
                        -77.00557,
                        38.89838
                    ],
                    [
                        -74.00602,
                        40.71273
                    ]
                ]
            }
        }
    ]
}